[{"OBJECT_NAME":"OBJECT A","OBJECT_ID":"2023-085A","EPOCH":"2026-03-09T21:42:39.504096","MEAN_MOTION":15.28003151,"ECCENTRICITY":0.00073195,"INCLINATION":97.4858,"RA_OF_ASC_NODE":178.2033,"ARG_OF_PERICENTER":32.2499,"MEAN_ANOMALY":327.9186,"EPHEMERIS_TYPE":0,"CLASSIFICATION_TYPE":"U","NORAD_CAT_ID":57004,"ELEMENT_SET_NO":999,"REV_AT_EPOCH":15139,"BSTAR":0.00063583858,"MEAN_MOTION_DOT":0.0001733,"MEAN_MOTION_DDOT":0},{"OBJECT_NAME":"STARLINK-30568","OBJECT_ID":"2023-158A","EPOCH":"2026-03-09T22:00:01.999584","MEAN_MOTION":15.27549841,"ECCENTRICITY":0.00015759,"INCLINATION":43.0037,"RA_OF_ASC_NODE":26.1725,"ARG_OF_PERICENTER":255.5586,"MEAN_ANOMALY":331.1754,"EPHEMERIS_TYPE":0,"CLASSIFICATION_TYPE":"U","NORAD_CAT_ID":58051,"ELEMENT_SET_NO":999,"REV_AT_EPOCH":572,"BSTAR":0.0013657049,"MEAN_MOTION_DOT":0.00037476,"MEAN_MOTION_DDOT":0}]
